[{"OBJECT_NAME":"STARLINK-3336","OBJECT_ID":"2022-001R","EPOCH":"2026-03-09T13:30:33.607008","MEAN_MOTION":15.08835904,"ECCENTRICITY":0.0001406,"INCLINATION":53.2177,"RA_OF_ASC_NODE":169.6941,"ARG_OF_PERICENTER":98.4417,"MEAN_ANOMALY":261.6735,"EPHEMERIS_TYPE":0,"CLASSIFICATION_TYPE":"U","NORAD_CAT_ID":50818,"ELEMENT_SET_NO":999,"REV_AT_EPOCH":23038,"BSTAR":-1.5912e-5,"MEAN_MOTION_DOT":-5.41e-6,"MEAN_MOTION_DDOT":0},{"OBJECT_NAME":"CZ-4B DEB","OBJECT_ID":"2008-053L","EPOCH":"2026-03-08T19:52:33.417984","MEAN_MOTION":15.09778257,"ECCENTRICITY":0.00077037,"INCLINATION":97.7892,"RA_OF_ASC_NODE":87.441,"ARG_OF_PERICENTER":237.5543,"MEAN_ANOMALY":122.4941,"EPHEMERIS_TYPE":0,"CLASSIFICATION_TYPE":"U","NORAD_CAT_ID":36290,"ELEMENT_SET_NO":999,"REV_AT_EPOCH":71411,"BSTAR":0.00021001,"MEAN_MOTION_DOT":3.326e-5,"MEAN_MOTION_DDOT":0}]
